OBJECT_NAME,OBJECT_ID,EPOCH,MEAN_MOTION,ECCENTRICITY,INCLINATION,RA_OF_ASC_NODE,ARG_OF_PERICENTER,MEAN_ANOMALY,EPHEMERIS_TYPE,CLASSIFICATION_TYPE,NORAD_CAT_ID,ELEMENT_SET_NO,REV_AT_EPOCH,BSTAR,MEAN_MOTION_DOT,MEAN_MOTION_DDOT
QIANFAN-176,2026-124M,2026-06-25T04:29:19.492224,14.21842067,.0003214,88.9984,1.1212,151.5529,208.5838,0,U,69393,999,295,.5269E-4,.13E-5,0
QIANFAN-177,2026-124N,2026-06-25T04:19:33.021120,14.22731521,.0004332,88.9984,1.1201,128.8883,231.2695,0,U,69394,999,295,.52609E-4,.132E-5,0
QIANFAN-178,2026-124P,2026-06-25T04:24:08.782272,14.22275109,.0003628,88.9984,1.1206,137.8136,222.3335,0,U,69395,999,295,.52592E-4,.131E-5,0
QIANFAN-179,2026-124Q,2026-06-25T04:14:34.260288,14.23098140,.0003635,88.9984,1.1194,133.8458,226.3034,0,U,69396,999,295,.47988E-4,.123E-5,0
QIANFAN-180,2026-124R,2026-06-25T04:09:50.056992,14.23619891,.0003904,88.9984,1.1191,144.3875,215.7579,0,U,69397,999,295,.59612E-4,.15E-5,0
QIANFAN-181,2026-124S,2026-06-25T03:58:38.472384,14.16650164,.0002859,88.9984,1.1365,107.2175,252.9327,0,U,69398,999,294,.45449E-4,.105E-5,0
QIANFAN-182,2026-124T,2026-06-25T03:28:39.186336,14.18739412,.000307,88.9984,1.1335,127.6116,232.5353,0,U,69399,999,294,.50241E-4,.119E-5,0
QIANFAN-183,2026-125A,2026-06-25T04:21:07.776000,14.16464406,.0015128,88.9952,279.5452,148.8853,211.3234,0,U,69401,999,283,.1664E-3,.345E-5,0
QIANFAN-184,2026-125B,2026-06-25T04:10:06.319200,14.16884415,.001603,88.9953,279.5443,143.2980,216.9309,0,U,69402,999,283,.17367E-3,.363E-5,0
QIANFAN-185,2026-125C,2026-06-25T04:15:49.315104,14.16089246,.0016866,88.9953,279.5448,143.8807,216.3524,0,U,69403,999,283,.1795E-3,.369E-5,0
QIANFAN-186,2026-125D,2026-06-25T03:59:21.253344,14.17435280,.0015314,88.9953,279.5432,144.5938,215.6270,0,U,69404,999,283,.17729E-3,.374E-5,0
QIANFAN-187,2026-125E,2026-06-25T03:49:42.841632,14.18345979,.0015826,88.9953,279.5420,145.7006,214.5208,0,U,69405,999,283,.17762E-3,.381E-5,0
QIANFAN-188,2026-125F,2026-06-25T03:37:34.334112,14.19438217,.0015789,88.9953,279.5406,149.2111,211.0008,0,U,69406,999,283,.17774E-3,.389E-5,0
QIANFAN-189,2026-125G,2026-06-25T03:42:02.497248,14.18757259,.0015047,88.9953,279.5412,146.5716,213.6426,0,U,69407,999,283,.18016E-3,.389E-5,0
QIANFAN-190,2026-125H,2026-06-25T03:36:50.245056,14.19220274,.0015824,88.9954,279.5408,148.2572,211.9575,0,U,69408,999,283,.17114E-3,.373E-5,0
QIANFAN-191,2026-125J,2026-06-25T03:25:31.090944,14.20091521,.0015233,88.9953,279.5394,147.0468,213.1675,0,U,69409,999,283,.17712E-3,.392E-5,0
QIANFAN-192,2026-125K,2026-06-25T03:19:43.051008,14.20517518,.0016086,88.9954,279.5390,147.4753,212.7432,0,U,69410,999,283,.18162E-3,.405E-5,0
QIANFAN-193,2026-125L,2026-06-25T03:12:16.884000,14.20960030,.0015962,88.9953,279.5381,147.8587,212.3580,0,U,69411,999,283,.17751E-3,.399E-5,0
QIANFAN-194,2026-125M,2026-06-25T03:07:17.685120,14.21401780,.0015232,88.9953,279.5375,151.3889,208.8141,0,U,69412,999,282,.17754E-3,.402E-5,0
QIANFAN-195,2026-125N,2026-06-25T04:43:57.195264,14.21799202,.0016447,88.9953,279.5291,149.9759,210.2379,0,U,69413,999,284,.18294E-3,.417E-5,0
QIANFAN-196,2026-125P,2026-06-25T04:38:24.868896,14.22294342,.0016555,88.9954,279.5285,150.4121,209.8010,0,U,69414,999,284,.18016E-3,.415E-5,0
QIANFAN-197,2026-125Q,2026-06-25T04:34:15.514176,14.22738775,.001485,88.9953,279.5280,147.3193,212.8920,0,U,69415,999,283,.17611E-3,.409E-5,0
QIANFAN-198,2026-125R,2026-06-25T04:39:12.510720,14.22065474,.0015161,88.9953,279.5286,146.7750,213.4396,0,U,69416,999,284,.17818E-3,.409E-5,0
QIANFAN-199,2026-125S,2026-06-25T02:45:06.943680,14.23628777,.0016873,88.9953,279.5352,148.0458,212.1761,0,U,69417,999,283,.16876E-3,.4E-5,0
QIANFAN-200,2026-125T,2026-06-25T03:30:01.342368,14.19639106,.0015925,88.9953,279.5399,145.9722,214.2492,0,U,69418,999,283,.17728E-3,.389E-5,0
STARLINK-37537,2026-126A,2026-06-25T04:16:27.154848,15.75312746,.0000834,97.2842,36.5477,40.7824,319.3504,0,U,69420,999,400,.24959E-2,.39185E-2,0
STARLINK-37585,2026-126B,2026-06-25T04:01:12.031968,15.75229860,.0001112,97.2850,36.5627,129.9037,230.2326,0,U,69421,999,400,.34254E-3,.51358E-3,0
STARLINK-37573,2026-126C,2026-06-25T04:21:01.126656,15.75260060,.0000862,97.2844,36.5429,111.1044,249.0314,0,U,69422,999,400,.99961E-3,.152112E-2,0
STARLINK-37820,2026-126D,2026-06-24T01:34:02.860032,15.80074081,.00009108,97.2830,35.4599,285.7569,74.3598,0,U,69423,999,383,.17306584E-2,.332941E-2,0
