QIANFAN-176             
1 69393U 26124M   26176.18703116  .00000130  00000+0  52690-4 0  9993
2 69393  88.9984   1.1212 0003214 151.5529 208.5838 14.21842067  2958
QIANFAN-177             
1 69394U 26124N   26176.18024330  .00000132  00000+0  52609-4 0  9990
2 69394  88.9984   1.1201 0004332 128.8883 231.2695 14.22731521  2956
QIANFAN-178             
1 69395U 26124P   26176.18343498  .00000131  00000+0  52592-4 0  9990
2 69395  88.9984   1.1206 0003628 137.8136 222.3335 14.22275109  2957
QIANFAN-179             
1 69396U 26124Q   26176.17678542  .00000123  00000+0  47988-4 0  9995
2 69396  88.9984   1.1194 0003635 133.8458 226.3034 14.23098140  2954
QIANFAN-180             
1 69397U 26124R   26176.17349603  .00000150  00000+0  59612-4 0  9996
2 69397  88.9984   1.1191 0003904 144.3875 215.7579 14.23619891  2959
QIANFAN-181             
1 69398U 26124S   26176.16572306  .00000105  00000+0  45449-4 0  9997
2 69398  88.9984   1.1365 0002859 107.2175 252.9327 14.16650164  2945
QIANFAN-182             
1 69399U 26124T   26176.14489799  .00000119  00000+0  50241-4 0  9990
2 69399  88.9984   1.1335 0003070 127.6116 232.5353 14.18739412  2949
QIANFAN-183             
1 69401U 26125A   26176.18134000  .00000345  00000+0  16640-3 0  9996
2 69401  88.9952 279.5452 0015128 148.8853 211.3234 14.16464406  2836
QIANFAN-184             
1 69402U 26125B   26176.17368425  .00000363  00000+0  17367-3 0  9993
2 69402  88.9953 279.5443 0016030 143.2980 216.9309 14.16884415  2831
QIANFAN-185             
1 69403U 26125C   26176.17765411  .00000369  00000+0  17950-3 0  9994
2 69403  88.9953 279.5448 0016866 143.8807 216.3524 14.16089246  2830
QIANFAN-186             
1 69404U 26125D   26176.16621821  .00000374  00000+0  17729-3 0  9990
2 69404  88.9953 279.5432 0015314 144.5938 215.6270 14.17435280  2838
QIANFAN-187             
1 69405U 26125E   26176.15952363  .00000381  00000+0  17762-3 0  9993
2 69405  88.9953 279.5420 0015826 145.7006 214.5208 14.18345979  2838
QIANFAN-188             
1 69406U 26125F   26176.15109183  .00000389  00000+0  17774-3 0  9999
2 69406  88.9953 279.5406 0015789 149.2111 211.0008 14.19438217  2836
QIANFAN-189             
1 69407U 26125G   26176.15419557  .00000389  00000+0  18016-3 0  9999
2 69407  88.9953 279.5412 0015047 146.5716 213.6426 14.18757259  2833
QIANFAN-190             
1 69408U 26125H   26176.15058154  .00000373  00000+0  17114-3 0  9993
2 69408  88.9954 279.5408 0015824 148.2572 211.9575 14.19220274  2831
QIANFAN-191             
1 69409U 26125J   26176.14272096  .00000392  00000+0  17712-3 0  9991
2 69409  88.9953 279.5394 0015233 147.0468 213.1675 14.20091521  2838
QIANFAN-192             
1 69410U 26125K   26176.13869272  .00000405  00000+0  18162-3 0  9995
2 69410  88.9954 279.5390 0016086 147.4753 212.7432 14.20517518  2830
QIANFAN-193             
1 69411U 26125L   26176.13352875  .00000399  00000+0  17751-3 0  9997
2 69411  88.9953 279.5381 0015962 147.8587 212.3580 14.20960030  2832
QIANFAN-194             
1 69412U 26125M   26176.13006580  .00000402  00000+0  17754-3 0  9995
2 69412  88.9953 279.5375 0015232 151.3889 208.8141 14.21401780  2826
QIANFAN-195             
1 69413U 26125N   26176.19718976  .00000417  00000+0  18294-3 0  9997
2 69413  88.9953 279.5291 0016447 149.9759 210.2379 14.21799202  2843
QIANFAN-196             
1 69414U 26125P   26176.19334339  .00000415  00000+0  18016-3 0  9995
2 69414  88.9954 279.5285 0016555 150.4121 209.8010 14.22294342  2840
QIANFAN-197             
1 69415U 26125Q   26176.19045734  .00000409  00000+0  17611-3 0  9997
2 69415  88.9953 279.5280 0014850 147.3193 212.8920 14.22738775  2831
QIANFAN-198             
1 69416U 26125R   26176.19389480  .00000409  00000+0  17818-3 0  9996
2 69416  88.9953 279.5286 0015161 146.7750 213.4396 14.22065474  2840
QIANFAN-199             
1 69417U 26125S   26176.11466370  .00000400  00000+0  16876-3 0  9997
2 69417  88.9953 279.5352 0016873 148.0458 212.1761 14.23628777  2839
QIANFAN-200             
1 69418U 26125T   26176.14584887  .00000389  00000+0  17728-3 0  9998
2 69418  88.9953 279.5399 0015925 145.9722 214.2492 14.19639106  2835
STARLINK-37537          
1 69420U 26126A   26176.17809207  .00391850  00000+0  24959-2 0  9990
2 69420  97.2842  36.5477 0000834  40.7824 319.3504 15.75312746  4007
STARLINK-37585          
1 69421U 26126B   26176.16750037  .00051358  00000+0  34254-3 0  9992
2 69421  97.2850  36.5627 0001112 129.9037 230.2326 15.75229860  4007
STARLINK-37573          
1 69422U 26126C   26176.18126304  .00152112  00000+0  99961-3 0  9995
2 69422  97.2844  36.5429 0000862 111.1044 249.0314 15.75260060  4005
STARLINK-37820          
1 69423U 26126D   26175.06531088  .00332941  00000+0  17307-2 0  9994
2 69423  97.2830  35.4599 0000910 285.7569  74.3598 15.80074081  3836
